0 CS 3B
1 19508U 88086A   13279.73415796 -.00000231  00000-0  10000-3 0  8931
2 19508 013.2352 036.5989 0002580 174.3859 185.6224 00.99224436 91257
0 CS 3B
1 19508U 88086A   13281.74969323 -.00000186  00000-0  10000-3 0  8945
2 19508 013.2385 036.5757 0002701 174.6352 185.3688 00.99223456 91276
0 CS 3B
1 19508U 88086A   13282.75748633  .00000000  00000-0  10000-3 0  8962
2 19508 013.2415 036.5642 0003738 192.6735 167.3209 00.99219115 91286
0 CS 3B
1 19508U 88086A   13286.78865496 -.00000059  00000-0  10000-3 0  8961
2 19508 013.2464 036.5170 0002768 174.2043 185.7961 00.99221477 91324
0 CS 3B
1 19508U 88086A   13288.80423743 -.00000011  00000-0  10000-3 0  8970
2 19508 013.2499 036.4930 0002818 173.4988 186.4871 00.99221023 91347
0 CS 3B
1 19508U 88086A   13290.81982162  .00000029  00000-0  10000-3 0  8988
2 19508 013.2532 036.4697 0003130 180.8812 179.0868 00.99220875 91361
0 CS 3B
1 19508U 88086A   13292.83542305  .00000057  00000-0  10000-3 0  8995
2 19508 013.2562 036.4460 0003151 180.2905 179.6733 00.99221045 91381
